<?xml version="1.0" encoding="UTF-8"?>
<ndm xmlns:xsi="http://www.w3.org/2001/XMLSchema-instance" xsi:noNamespaceSchemaLocation="https://sanaregistry.org/r/ndmxml_unqualified/ndmxml-2.0.0-master-2.0.xsd">
<omm id="CCSDS_OMM_VERS" version="2.0">
<header><CREATION_DATE/><ORIGINATOR/></header><body><segment><metadata><OBJECT_NAME>KUIPER-00035</OBJECT_NAME><OBJECT_ID>2025-088AA</OBJECT_ID><CENTER_NAME>EARTH</CENTER_NAME><REF_FRAME>TEME</REF_FRAME><TIME_SYSTEM>UTC</TIME_SYSTEM><MEAN_ELEMENT_THEORY>SGP4</MEAN_ELEMENT_THEORY></metadata><data><meanElements><EPOCH>2025-12-18T14:29:50.295840</EPOCH><MEAN_MOTION>14.79902681</MEAN_MOTION><ECCENTRICITY>.00067569</ECCENTRICITY><INCLINATION>51.9000</INCLINATION><RA_OF_ASC_NODE>112.6733</RA_OF_ASC_NODE><ARG_OF_PERICENTER>162.3604</ARG_OF_PERICENTER><MEAN_ANOMALY>197.7594</MEAN_ANOMALY></meanElements><tleParameters><EPHEMERIS_TYPE>0</EPHEMERIS_TYPE><CLASSIFICATION_TYPE>U</CLASSIFICATION_TYPE><NORAD_CAT_ID>63748</NORAD_CAT_ID><ELEMENT_SET_NO>999</ELEMENT_SET_NO><REV_AT_EPOCH>3550</REV_AT_EPOCH><BSTAR>.74019308E-3</BSTAR><MEAN_MOTION_DOT>.5423E-4</MEAN_MOTION_DOT><MEAN_MOTION_DDOT>0</MEAN_MOTION_DDOT></tleParameters></data></segment></body></omm>
<omm id="CCSDS_OMM_VERS" version="2.0">
<header><CREATION_DATE/><ORIGINATOR/></header><body><segment><metadata><OBJECT_NAME>KUIPER-00037</OBJECT_NAME><OBJECT_ID>2025-088AB</OBJECT_ID><CENTER_NAME>EARTH</CENTER_NAME><REF_FRAME>TEME</REF_FRAME><TIME_SYSTEM>UTC</TIME_SYSTEM><MEAN_ELEMENT_THEORY>SGP4</MEAN_ELEMENT_THEORY></metadata><data><meanElements><EPOCH>2025-12-18T16:00:00.999936</EPOCH><MEAN_MOTION>14.79028385</MEAN_MOTION><ECCENTRICITY>.00038581</ECCENTRICITY><INCLINATION>51.8990</INCLINATION><RA_OF_ASC_NODE>111.3536</RA_OF_ASC_NODE><ARG_OF_PERICENTER>123.1540</ARG_OF_PERICENTER><MEAN_ANOMALY>196.8784</MEAN_ANOMALY></meanElements><tleParameters><EPHEMERIS_TYPE>0</EPHEMERIS_TYPE><CLASSIFICATION_TYPE>U</CLASSIFICATION_TYPE><NORAD_CAT_ID>63749</NORAD_CAT_ID><ELEMENT_SET_NO>999</ELEMENT_SET_NO><REV_AT_EPOCH>560</REV_AT_EPOCH><BSTAR>.73628069E-2</BSTAR><MEAN_MOTION_DOT>.55174E-3</MEAN_MOTION_DOT><MEAN_MOTION_DDOT>0</MEAN_MOTION_DDOT></tleParameters></data></segment></body></omm>
<omm id="CCSDS_OMM_VERS" version="2.0">
<header><CREATION_DATE/><ORIGINATOR/></header><body><segment><metadata><OBJECT_NAME>KUIPER-00038</OBJECT_NAME><OBJECT_ID>2025-088AC</OBJECT_ID><CENTER_NAME>EARTH</CENTER_NAME><REF_FRAME>TEME</REF_FRAME><TIME_SYSTEM>UTC</TIME_SYSTEM><MEAN_ELEMENT_THEORY>SGP4</MEAN_ELEMENT_THEORY></metadata><data><meanElements><EPOCH>2025-12-18T13:18:08.195328</EPOCH><MEAN_MOTION>14.79864410</MEAN_MOTION><ECCENTRICITY>.00076342</ECCENTRICITY><INCLINATION>51.9028</INCLINATION><RA_OF_ASC_NODE>96.8590</RA_OF_ASC_NODE><ARG_OF_PERICENTER>160.7856</ARG_OF_PERICENTER><MEAN_ANOMALY>199.3395</MEAN_ANOMALY></meanElements><tleParameters><EPHEMERIS_TYPE>0</EPHEMERIS_TYPE><CLASSIFICATION_TYPE>U</CLASSIFICATION_TYPE><NORAD_CAT_ID>63750</NORAD_CAT_ID><ELEMENT_SET_NO>999</ELEMENT_SET_NO><REV_AT_EPOCH>3550</REV_AT_EPOCH><BSTAR>-.92080517E-3</BSTAR><MEAN_MOTION_DOT>-.7227E-4</MEAN_MOTION_DOT><MEAN_MOTION_DDOT>0</MEAN_MOTION_DDOT></tleParameters></data></segment></body></omm>
<omm id="CCSDS_OMM_VERS" version="2.0">
<header><CREATION_DATE/><ORIGINATOR/></header><body><segment><metadata><OBJECT_NAME>KUIPER-00039</OBJECT_NAME><OBJECT_ID>2025-134A</OBJECT_ID><CENTER_NAME>EARTH</CENTER_NAME><REF_FRAME>TEME</REF_FRAME><TIME_SYSTEM>UTC</TIME_SYSTEM><MEAN_ELEMENT_THEORY>SGP4</MEAN_ELEMENT_THEORY></metadata><data><meanElements><EPOCH>2025-12-18T09:24:21.777408</EPOCH><MEAN_MOTION>14.79913850</MEAN_MOTION><ECCENTRICITY>.0011736</ECCENTRICITY><INCLINATION>51.9018</INCLINATION><RA_OF_ASC_NODE>232.5819</RA_OF_ASC_NODE><ARG_OF_PERICENTER>22.2812</ARG_OF_PERICENTER><MEAN_ANOMALY>337.8658</MEAN_ANOMALY></meanElements><tleParameters><EPHEMERIS_TYPE>0</EPHEMERIS_TYPE><CLASSIFICATION_TYPE>U</CLASSIFICATION_TYPE><NORAD_CAT_ID>64500</NORAD_CAT_ID><ELEMENT_SET_NO>999</ELEMENT_SET_NO><REV_AT_EPOCH>2803</REV_AT_EPOCH><BSTAR>.17334867E-2</BSTAR><MEAN_MOTION_DOT>.13025E-3</MEAN_MOTION_DOT><MEAN_MOTION_DDOT>0</MEAN_MOTION_DDOT></tleParameters></data></segment></body></omm>
<omm id="CCSDS_OMM_VERS" version="2.0">
<header><CREATION_DATE/><ORIGINATOR/></header><body><segment><metadata><OBJECT_NAME>KUIPER-00040</OBJECT_NAME><OBJECT_ID>2025-134B</OBJECT_ID><CENTER_NAME>EARTH</CENTER_NAME><REF_FRAME>TEME</REF_FRAME><TIME_SYSTEM>UTC</TIME_SYSTEM><MEAN_ELEMENT_THEORY>SGP4</MEAN_ELEMENT_THEORY></metadata><data><meanElements><EPOCH>2025-12-18T10:43:11.569152</EPOCH><MEAN_MOTION>14.79762371</MEAN_MOTION><ECCENTRICITY>.00176757</ECCENTRICITY><INCLINATION>51.8990</INCLINATION><RA_OF_ASC_NODE>243.4912</RA_OF_ASC_NODE><ARG_OF_PERICENTER>0.1702</ARG_OF_PERICENTER><MEAN_ANOMALY>359.9263</MEAN_ANOMALY></meanElements><tleParameters><EPHEMERIS_TYPE>0</EPHEMERIS_TYPE><CLASSIFICATION_TYPE>U</CLASSIFICATION_TYPE><NORAD_CAT_ID>64501</NORAD_CAT_ID><ELEMENT_SET_NO>999</ELEMENT_SET_NO><REV_AT_EPOCH>2788</REV_AT_EPOCH><BSTAR>-.73498664E-2</BSTAR><MEAN_MOTION_DOT>-.55727E-3</MEAN_MOTION_DOT><MEAN_MOTION_DDOT>0</MEAN_MOTION_DDOT></tleParameters></data></segment></body></omm>
<omm id="CCSDS_OMM_VERS" version="2.0">
<header><CREATION_DATE/><ORIGINATOR/></header><body><segment><metadata><OBJECT_NAME>KUIPER-00041</OBJECT_NAME><OBJECT_ID>2025-134C</OBJECT_ID><CENTER_NAME>EARTH</CENTER_NAME><REF_FRAME>TEME</REF_FRAME><TIME_SYSTEM>UTC</TIME_SYSTEM><MEAN_ELEMENT_THEORY>SGP4</MEAN_ELEMENT_THEORY></metadata><data><meanElements><EPOCH>2025-12-18T02:35:23.214912</EPOCH><MEAN_MOTION>14.79626348</MEAN_MOTION><ECCENTRICITY>.00128459</ECCENTRICITY><INCLINATION>51.8973</INCLINATION><RA_OF_ASC_NODE>246.3423</RA_OF_ASC_NODE><ARG_OF_PERICENTER>1.1572</ARG_OF_PERICENTER><MEAN_ANOMALY>358.9417</MEAN_ANOMALY></meanElements><tleParameters><EPHEMERIS_TYPE>0</EPHEMERIS_TYPE><CLASSIFICATION_TYPE>U</CLASSIFICATION_TYPE><NORAD_CAT_ID>64502</NORAD_CAT_ID><ELEMENT_SET_NO>999</ELEMENT_SET_NO><REV_AT_EPOCH>2781</REV_AT_EPOCH><BSTAR>-.11746106E-2</BSTAR><MEAN_MOTION_DOT>-.9114E-4</MEAN_MOTION_DOT><MEAN_MOTION_DDOT>0</MEAN_MOTION_DDOT></tleParameters></data></segment></body></omm>
<omm id="CCSDS_OMM_VERS" version="2.0">
<header><CREATION_DATE/><ORIGINATOR/></header><body><segment><metadata><OBJECT_NAME>KUIPER-00042</OBJECT_NAME><OBJECT_ID>2025-134D</OBJECT_ID><CENTER_NAME>EARTH</CENTER_NAME><REF_FRAME>TEME</REF_FRAME><TIME_SYSTEM>UTC</TIME_SYSTEM><MEAN_ELEMENT_THEORY>SGP4</MEAN_ELEMENT_THEORY></metadata><data><meanElements><EPOCH>2025-12-18T09:10:11.043264</EPOCH><MEAN_MOTION>14.79879521</MEAN_MOTION><ECCENTRICITY>.00127427</ECCENTRICITY><INCLINATION>51.8996</INCLINATION><RA_OF_ASC_NODE>241.1380</RA_OF_ASC_NODE><ARG_OF_PERICENTER>11.6042</ARG_OF_PERICENTER><MEAN_ANOMALY>348.5212</MEAN_ANOMALY></meanElements><tleParameters><EPHEMERIS_TYPE>0</EPHEMERIS_TYPE><CLASSIFICATION_TYPE>U</CLASSIFICATION_TYPE><NORAD_CAT_ID>64503</NORAD_CAT_ID><ELEMENT_SET_NO>999</ELEMENT_SET_NO><REV_AT_EPOCH>2791</REV_AT_EPOCH><BSTAR>-.20631403E-3</BSTAR><MEAN_MOTION_DOT>-.1797E-4</MEAN_MOTION_DOT><MEAN_MOTION_DDOT>0</MEAN_MOTION_DDOT></tleParameters></data></segment></body></omm>
<omm id="CCSDS_OMM_VERS" version="2.0">
<header><CREATION_DATE/><ORIGINATOR/></header><body><segment><metadata><OBJECT_NAME>KUIPER-00043</OBJECT_NAME><OBJECT_ID>2025-134E</OBJECT_ID><CENTER_NAME>EARTH</CENTER_NAME><REF_FRAME>TEME</REF_FRAME><TIME_SYSTEM>UTC</TIME_SYSTEM><MEAN_ELEMENT_THEORY>SGP4</MEAN_ELEMENT_THEORY></metadata><data><meanElements><EPOCH>2025-12-18T09:21:47.364192</EPOCH><MEAN_MOTION>14.79937487</MEAN_MOTION><ECCENTRICITY>.0003824</ECCENTRICITY><INCLINATION>51.9016</INCLINATION><RA_OF_ASC_NODE>233.5489</RA_OF_ASC_NODE><ARG_OF_PERICENTER>29.7738</ARG_OF_PERICENTER><MEAN_ANOMALY>330.3442</MEAN_ANOMALY></meanElements><tleParameters><EPHEMERIS_TYPE>0</EPHEMERIS_TYPE><CLASSIFICATION_TYPE>U</CLASSIFICATION_TYPE><NORAD_CAT_ID>64504</NORAD_CAT_ID><ELEMENT_SET_NO>999</ELEMENT_SET_NO><REV_AT_EPOCH>2802</REV_AT_EPOCH><BSTAR>-.13367262E-3</BSTAR><MEAN_MOTION_DOT>-.1241E-4</MEAN_MOTION_DOT><MEAN_MOTION_DDOT>0</MEAN_MOTION_DDOT></tleParameters></data></segment></body></omm>

</ndm>
