KUIPER-00035            
1 63748U 25088AA  25352.60405435  .00005423  00000+0  74019-3 0  9992
2 63748  51.9000 112.6733 0006756 162.3604 197.7594 14.79902681 35506
KUIPER-00037            
1 63749U 25088AB  25352.66667824  .00055174  00000+0  73628-2 0  9993
2 63749  51.8990 111.3536 0003858 123.1540 196.8784 14.79028385  5604
KUIPER-00038            
1 63750U 25088AC  25352.55426152 -.00007227  00000+0 -92081-3 0  9993
2 63750  51.9028  96.8590 0007634 160.7856 199.3395 14.79864410 35504
KUIPER-00039            
1 64500U 25134A   25352.39191872  .00013025  00000+0  17335-2 0  9998
2 64500  51.9018 232.5819 0011736  22.2812 337.8658 14.79913850 28036
KUIPER-00040            
1 64501U 25134B   25352.44666168 -.00055727  00000+0 -73499-2 0  9990
2 64501  51.8990 243.4912 0017675   0.1702 359.9263 14.79762371 27880
KUIPER-00041            
1 64502U 25134C   25352.10790758 -.00009114  00000+0 -11746-2 0  9993
2 64502  51.8973 246.3423 0012845   1.1572 358.9417 14.79626348 27817
KUIPER-00042            
1 64503U 25134D   25352.38207226 -.00001797  00000+0 -20631-3 0  9990
2 64503  51.8996 241.1380 0012742  11.6042 348.5212 14.79879521 27914
KUIPER-00043            
1 64504U 25134E   25352.39013153 -.00001241  00000+0 -13367-3 0  9998
2 64504  51.9016 233.5489 0003824  29.7738 330.3442 14.79937487 28020
